213P/VanNess,e,10.5244,310.5982,7.0746,3.361358,0.1599307,0.41151399,115.1315,11/05.0/2025,2000,g 10.5,4.0
# From MPEC 2025-GB9
213P-B/Van Ness,e,10.5237,310.5950,7.0922,3.361204,0.1599417,0.41139417,115.1600,11/05.0/2025,2000,g 17.0,4.0
# From MPC 76570
213P-C/Van Ness,e,10.3618,4.5426,312.9282,3.357275,0.1602226,0.41064054,115.6962,11/05.0/2025,2000,g 17.5,4.0
# From MPC 92986
214P/LINEAR,e,15.1950,348.2117,190.1191,3.616078,0.1433334,0.48645134,162.7405,11/05.0/2025,2000,g 13.0,4.0
# From MPC184418
215P/NEAT,e,10.5761,56.6803,262.1831,4.336579,0.1091398,0.16485447,238.3167,11/05.0/2025,2000,g 11.0,4.0
# From MPEC 2024-N80
216P/LINEAR,e,9.0619,359.7711,151.7845,3.860527,0.1299374,0.44910173,86.7885,11/05.0/2025,2000,g 13.0,4.0
# From MPEC 2025-V36
217P/LINEAR,e,12.8664,125.3685,247.0444,3.946476,0.1257158,0.68925631,20.6223,11/05.0/2025,2000,g 12.0,4.0
# From MPEC 2022-K19
218P/LINEAR,e,2.7272,174.6571,61.4670,3.059694,0.1841565,0.63083916,338.1037,11/05.0/2025,2000,g 16.0,4.0
# From MPC182889
219P/LINEAR,e,11.4698,230.6394,108.3452,3.661061,0.1406998,0.35713246,88.3016,11/05.0/2025,2000,g 11.0,4.0
# From MPEC 2024-A43
220P/McNaught,e,8.1206,150.0866,180.5743,3.120613,0.1787904,0.50036227,320.4624,11/05.0/2025,2000,g 15.0,4.0
# From MPEC 2022-UY9
221P/LINEAR,e,10.4804,223.8292,44.6773,3.380485,0.1585753,0.52397870,220.8042,11/05.0/2025,2000,g 14.5,4.0
# From MPC 92277
222P/LINEAR,e,5.0985,6.7447,346.2689,2.895675,0.2000227,0.71487129,108.2390,11/05.0/2025,2000,g 20.0,4.0
# From MPEC 2023-A50
223P/Skiff,e,27.0060,346.6950,37.9907,4.158205,0.1162372,0.41615307,287.1369,11/05.0/2025,2000,g 12.0,4.0
# From MPEC 2024-L77
224P/LINEAR-NEAT,e,13.2994,40.0397,16.8285,3.447586,0.1539683,0.40542185,174.2754,11/05.0/2025,2000,g 15.5,4.0
# From MPEC 2024-F91
225P/LINEAR,e,21.3583,14.2136,3.9060,3.647578,0.1414807,0.63803346,116.0519,11/05.0/2025,2000,g 18.0,4.0
# From MPEC 2024-MB8
226P/Pigott-LINEAR-Kowalski,e,44.0436,54.0163,341.0386,3.765534,0.1348852,0.52874478,91.5880,11/05.0/2025,2000,g 12.5,4.0
# From MPEC 2024-R10
227P/Catalina-LINEAR,e,7.5067,36.7938,105.6060,3.437854,0.1546226,0.52777537,93.7955,11/05.0/2025,2000,g 16.5,2.0
# From MPEC 2025-UQ3
228P/LINEAR,e,7.9167,30.9510,114.8520,4.161280,0.1161084,0.17760607,239.8108,11/05.0/2025,2000,g 14.5,2.0
# From MPC186636
229P/Gibbs,e,26.0971,157.8643,224.2771,3.925831,0.1267088,0.37831785,30.9239,11/05.0/2025,2000,g 13.0,4.0
# From MPC185664
230P/LINEAR,e,15.4729,106.9239,313.5908,3.455280,0.1534543,0.54534187,203.5193,11/05.0/2025,2000,g 13.0,4.0
# From MPEC 2023-SQ0
231P/LINEAR-NEAT,e,12.2743,132.7580,43.5347,4.065134,0.1202519,0.23994118,283.4275,11/05.0/2025,2000,g 14.5,2.0
# From MPC112394
232P/Hill,e,14.6429,56.0005,53.3405,4.469227,0.1043171,0.33621179,250.3994,11/05.0/2025,2000,g 11.5,4.0
# From MPEC 2021-N06
233P/La Sagra,e,11.2886,74.8983,27.0125,3.027407,0.1871104,0.41311730,348.0049,11/05.0/2025,2000,g 15.0,4.0
# From MPC185664
234P/LINEAR,e,11.5332,179.5590,357.4633,3.798739,0.1331205,0.25741293,50.2195,11/05.0/2025,2000,g 12.0,4.0
# From MPEC 2025-UQ3
235P/LINEAR,e,9.8132,200.1697,352.1939,3.445605,0.1541012,0.42595095,352.6539,11/05.0/2025,2000,g 12.0,4.0
# From MPEC 2024-P23
236P/LINEAR,e,16.3493,245.5603,119.4655,3.728673,0.1368903,0.50970107,37.5162,11/05.0/2025,2000,g 14.0,4.0
# From MPC182890
237P/LINEAR,e,14.0017,245.3580,25.5731,3.518931,0.1493097,0.43187851,135.3118,11/05.0/2025,2000,g 14.5,2.0
# From MPEC 2024-L77
238P/Read,e,1.2636,51.6509,324.2542,3.167982,0.1747954,0.25043529,218.3819,11/05.0/2025,2000,g 14.5,4.0
# From MPEC 2021-F20
239P/LINEAR,e,11.3057,255.9274,220.4068,4.463106,0.1045318,0.63159371,260.1035,11/05.0/2025,2000,g 17.5,2.0
# From MPEC 2025-V36
240P/NEAT,e,23.5369,74.9112,352.0783,3.860767,0.1299253,0.45046288,354.1598,11/05.0/2025,2000,g 11.0,4.0
# From MPEC 2025-V36
240P-B/NEAT,e,23.5772,74.8808,352.3925,3.867132,0.1296046,0.45129295,354.0700,11/05.0/2025,2000,g 15.5,4.0
# From MPEC 2022-J42
241P/LINEAR,e,21.0953,305.4062,111.6391,4.928549,0.0900794,0.60996201,140.7842,11/05.0/2025,2000,g 13.5,4.0
# From MPEC 2025-V36
242P/Spahr,e,32.4272,180.1938,245.0475,5.538386,0.0756187,0.28284074,23.9304,11/05.0/2025,2000,g  8.0,4.0
# From MPC188418
243P/NEAT,e,7.6444,87.5762,283.7857,3.826003,0.1317001,0.36016901,345.1723,11/05.0/2025,2000,g 12.5,4.0
# From MPEC 2024-L77
244P/Scotti,e,2.2573,354.0029,93.5843,4.905769,0.0907076,0.19975262,98.0089,11/05.0/2025,2000,g  9.0,4.0
# From MPEC 2022-CN4
245P/WISE,e,21.1710,316.8823,316.4900,4.053596,0.1207656,0.45589207,342.3497,11/05.0/2025,2000,g 14.0,4.0
# From MPEC 2024-YC7
246P/NEAT,e,17.3078,74.0791,185.1121,4.321724,0.1097030,0.21356909,200.5399,11/05.0/2025,2000,g 10.5,4.0
# From MPEC 2021-F20
247P/LINEAR,e,13.6584,53.9790,47.5283,3.963068,0.1249272,0.62560794,315.6558,11/05.0/2025,2000,g 16.5,2.0
# From MPEC 2025-V36
248P/Gibbs,e,6.3513,207.7928,209.9980,5.986336,0.0672918,0.63955690,3.4356,11/05.0/2025,2000,g 14.0,4.0
# From MPEC 2022-YN2
249P/LINEAR,e,8.3734,238.9901,65.8353,2.768423,0.2139713,0.81943767,59.1104,11/05.0/2025,2000,g 15.5,4.0
# From MPC182890
250P/Larson,e,13.1518,73.3002,45.7024,3.775677,0.1343420,0.39816412,23.1464,11/05.0/2025,2000,g 14.5,4.0
# From MPEC 2024-TD8
251P/LINEAR,e,23.3896,219.3367,31.1786,3.511358,0.1497929,0.50416504,94.5084,11/05.0/2025,2000,g 16.5,2.0
# From MPEC 2021-S45
252P/LINEAR,e,10.4206,190.9073,343.3720,3.051414,0.1849066,0.67112730,292.0131,11/05.0/2025,2000,g 17.5,4.0
# From MPEC 2025-UQ3
253P/PANSTARRS,e,4.9490,146.8006,230.8066,3.464459,0.1528449,0.41557098,58.0811,11/05.0/2025,2000,g 14.5,4.0
# From MPC184419
254P/McNaught,e,32.5365,129.1761,219.7046,4.620576,0.0992339,0.31831922,185.0030,11/05.0/2025,2000,g 11.0,4.0
# From NK 2214
255P/Levy,e,13.4055,275.6367,186.0518,2.942113,0.1953058,0.71209334,225.3254,11/05.0/2025,2000,g 20.0,4.0
# From MPEC 2024-L77
256P/LINEAR,e,27.6228,81.3183,124.0463,4.634225,0.0987958,0.41815332,95.7337,11/05.0/2025,2000,g 14.0,2.0
# From MPEC 2023-A50
257P/Catalina,e,20.2139,207.7316,117.7019,3.768555,0.1347230,0.42869254,253.8840,11/05.0/2025,2000,g 11.5,4.0
# From MPEC 2021-U31
258P/PANSTARRS,e,6.7512,126.2368,25.6401,4.387952,0.1072288,0.20975941,210.6589,11/05.0/2025,2000,g 13.0,4.0
# From MPC106349
259P/Garradd,e,15.8977,51.3743,257.4668,2.729751,0.2185342,0.33873061,298.7835,11/05.0/2025,2000,g 15.5,4.0
# From MPEC 2022-O01
260P/McNaught,e,15.0425,349.2964,18.4954,3.623595,0.1428876,0.60871827,320.9895,11/05.0/2025,2000,g 13.5,4.0
# From MPEC 2025-V36
261P/Larson,e,6.0734,291.0504,67.3664,3.488959,0.1512378,0.42269428,352.0733,11/05.0/2025,2000,g 14.0,4.0
# From MPC 82322
262P/McNaught-Russell,e,29.2358,217.8840,171.0687,6.869442,0.0547422,0.81581810,257.8240,11/05.0/2025,2000,g 13.5,4.0
# From MPEC 2024-L77
263P/Gibbs,e,11.5268,105.5042,35.0261,3.040631,0.1858911,0.59417865,187.5453,11/05.0/2025,2000,g 18.0,4.0
# From MPC114608
264P/Larsen,e,25.1078,219.0368,341.1835,4.030146,0.1218212,0.34008252,299.6174,11/05.0/2025,2000,g 13.0,4.0
# From MPC 79870
265P/LINEAR,e,14.3369,342.9107,33.5735,4.261393,0.1120409,0.64650430,193.9022,11/05.0/2025,2000,g 14.5,4.0
# From MPC188419
266P/Christensen,e,3.4284,4.9827,97.8040,3.528069,0.1487300,0.34066593,300.8265,11/05.0/2025,2000,g 12.5,4.0
# From MPC114608
267P/LONEOS,e,6.1386,228.4820,114.2038,3.206181,0.1716809,0.61534844,95.9574,11/05.0/2025,2000,g 19.5,4.0
# From MPC185665
268P/Bernardi,e,15.6613,125.6303,0.0351,4.591889,0.1001652,0.47452517,32.2005,11/05.0/2025,2000,g 14.0,4.0
# From MPEC 2023-J29
269P/Jedicke,e,7.0832,241.7551,225.7671,7.057258,0.0525715,0.43366139,212.5062,11/05.0/2025,2000,g 10.0,4.0
# From MPC 88332
270P/Gehrels,e,2.9245,223.0132,209.9658,6.647934,0.0575008,0.47016832,259.6035,11/05.0/2025,2000,g  8.0,4.0
# From MPC 92277
271P/van Houten-Lemmon,e,6.8656,9.2622,36.6470,7.032669,0.0528474,0.39569343,236.8874,11/05.0/2025,2000,g 11.0,4.0
# From MPEC 2023-D41
272P/NEAT,e,18.0834,109.4391,27.8967,4.462017,0.1045700,0.45562145,126.1380,11/05.0/2025,2000,g 16.0,2.0
# From MPC 82723
273P/Pons-Gambart,e,136.3102,320.3771,20.1000,31.89444,0.0054718,0.97454568,0.0000,12/21.4732/2012,2000,g 11.5,4.0
# From MPEC 2024-GJ3
274P/Tombaugh-Tenagra,e,15.8198,81.3166,38.5084,4.378593,0.1075727,0.44031824,140.4434,11/05.0/2025,2000,g 13.0,4.0
# From MPC 81862
275P/Hermann,e,21.2532,348.6805,173.8851,5.798978,0.0705792,0.71388761,334.8086,11/05.0/2025,2000,g 15.0,4.0
# From MPEC 2025-UQ3
276P/Vorobjov,e,14.7447,211.0922,199.6177,5.380980,0.0789609,0.27549747,25.9098,11/05.0/2025,2000,g 11.5,4.0
# From MPEC 2021-F20
277P/LINEAR,e,16.7933,276.2597,152.4477,3.853529,0.1302915,0.50634010,230.4850,11/05.0/2025,2000,g 14.0,4.0
# From MPEC 2021-S45
278P/McNaught,e,6.6263,11.2512,242.4200,3.624023,0.1428623,0.45426418,263.0316,11/05.0/2025,2000,g 14.0,4.0
# From MPEC 2024-A43
279P/LaSagra,e,5.0542,346.0941,5.5931,3.567094,0.1462959,0.39958767,136.2551,11/05.0/2025,2000,g 14.0,4.0
# From MPEC 2024-RQ6
280P/Larsen,e,11.7755,131.3788,104.6041,4.523441,0.1024473,0.41691606,84.3793,11/05.0/2025,2000,g 12.5,4.0
# From MPEC 2023-D41
281P/MOSS,e,4.7176,87.1668,27.0936,4.888021,0.0912020,0.17393831,91.5817,11/05.0/2025,2000,g 11.0,4.0
# From MPEC 2022-K19
283P/Spacewatch,e,14.4705,161.1263,22.1456,4.130992,0.1173877,0.48524906,178.2151,11/05.0/2025,2000,g 16.0,2.0
# From MPEC 2024-D33
284P/McNaught,e,11.8520,144.2609,202.4493,3.679404,0.1396490,0.37417360,211.7411,11/05.0/2025,2000,g 13.0,4.0
# From MPEC 2024-L77
285P/LINEAR,e,25.0305,185.5168,178.3780,4.505102,0.1030735,0.61794248,106.0006,11/05.0/2025,2000,g 15.0,4.0
# From MPEC 2024-LE0
286P/Christensen,e,17.2497,283.5840,23.6375,4.064231,0.1202920,0.43462164,152.9047,11/05.0/2025,2000,g 14.0,4.0
# From MPEC 2025-UQ3
287P/Christensen,e,16.4026,138.4276,191.3405,4.200566,0.1144834,0.27231023,96.8320,11/05.0/2025,2000,g 13.5,4.0
# From MPC133426
288P/,e,3.2382,83.1069,280.2635,3.050928,0.1849508,0.19947595,248.8384,11/05.0/2025,2000,g 16.0,2.0
# From MPEC 2024-O39
